{"type": "FeatureCollection", "features": [{"type": "Feature", "properties": {"unit": "Basement Complex"}, "geometry": {"type": "Polygon", "coordinates": [[[2.6, 6.9], [3.2666666666666666, 6.9], [3.2666666666666666, 7.666666666666667], [2.6, 7.666666666666667], [2.6, 6.9]]]}}, {"type": "Feature", "properties": {"unit": "Sedimentary Cover"}, "geometry": {"type": "Polygon", "coordinates": [[[2.6, 7.666666666666667], [3.2666666666666666, 7.666666666666667], [3.2666666666666666, 8.433333333333334], [2.6, 8.433333333333334], [2.6, 7.666666666666667]]]}}, {"type": "Feature", "properties": {"unit": "Migmatite Gneiss"}, "geometry": {"type": "Polygon", "coordinates": [[[2.6, 8.433333333333334], [3.2666666666666666, 8.433333333333334], [3.2666666666666666, 9.2], [2.6, 9.2], [2.6, 8.433333333333334]]]}}, {"type": "Feature", "properties": {"unit": "Sedimentary Cover"}, "geometry": {"type": "Polygon", "coordinates": [[[3.2666666666666666, 6.9], [3.933333333333333, 6.9], [3.933333333333333, 7.666666666666667], [3.2666666666666666, 7.666666666666667], [3.2666666666666666, 6.9]]]}}, {"type": "Feature", "properties": {"unit": "Migmatite Gneiss"}, "geometry": {"type": "Polygon", "coordinates": [[[3.2666666666666666, 7.666666666666667], [3.933333333333333, 7.666666666666667], [3.933333333333333, 8.433333333333334], [3.2666666666666666, 8.433333333333334], [3.2666666666666666, 7.666666666666667]]]}}, {"type": "Feature", "properties": {"unit": "Basement Complex"}, "geometry": {"type": "Polygon", "coordinates": [[[3.2666666666666666, 8.433333333333334], [3.933333333333333, 8.433333333333334], [3.933333333333333, 9.2], [3.2666666666666666, 9.2], [3.2666666666666666, 8.433333333333334]]]}}, {"type": "Feature", "properties": {"unit": "Migmatite Gneiss"}, "geometry": {"type": "Polygon", "coordinates": [[[3.933333333333333, 6.9], [4.6, 6.9], [4.6, 7.666666666666667], [3.933333333333333, 7.666666666666667], [3.933333333333333, 6.9]]]}}, {"type": "Feature", "properties": {"unit": "Basement Complex"}, "geometry": {"type": "Polygon", "coordinates": [[[3.933333333333333, 7.666666666666667], [4.6, 7.666666666666667], [4.6, 8.433333333333334], [3.933333333333333, 8.433333333333334], [3.933333333333333, 7.666666666666667]]]}}, {"type": "Feature", "properties": {"unit": "Sedimentary Cover"}, "geometry": {"type": "Polygon", "coordinates": [[[3.933333333333333, 8.433333333333334], [4.6, 8.433333333333334], [4.6, 9.2], [3.933333333333333, 9.2], [3.933333333333333, 8.433333333333334]]]}}]}