{"type": "FeatureCollection", "features": [{"type": "Feature", "properties": {"mineral": "Gold", "occurrence_id": 1}, "geometry": {"type": "Point", "coordinates": [3.4987230042875774, 7.526155592243866]}}, {"type": "Feature", "properties": {"mineral": "Tantalite", "occurrence_id": 2}, "geometry": {"type": "Point", "coordinates": [2.7927819243069987, 8.975985512050835]}}, {"type": "Feature", "properties": {"mineral": "Cassiterite", "occurrence_id": 3}, "geometry": {"type": "Point", "coordinates": [3.511552579667222, 7.36543573902903]}}, {"type": "Feature", "properties": {"mineral": "Lithium (Spodumene)", "occurrence_id": 4}, "geometry": {"type": "Point", "coordinates": [3.211913248301305, 8.23220500856636]}}, {"type": "Feature", "properties": {"mineral": "Limestone", "occurrence_id": 5}, "geometry": {"type": "Point", "coordinates": [2.9535455658784633, 8.870212853412463]}}, {"type": "Feature", "properties": {"mineral": "Gold", "occurrence_id": 6}, "geometry": {"type": "Point", "coordinates": [4.11703905967042, 8.554764798687154]}}, {"type": "Feature", "properties": {"mineral": "Tantalite", "occurrence_id": 7}, "geometry": {"type": "Point", "coordinates": [3.464186079550207, 8.342810333615619]}}, {"type": "Feature", "properties": {"mineral": "Cassiterite", "occurrence_id": 8}, "geometry": {"type": "Point", "coordinates": [3.768195937825471, 8.394647183576085]}}, {"type": "Feature", "properties": {"mineral": "Lithium (Spodumene)", "occurrence_id": 9}, "geometry": {"type": "Point", "coordinates": [2.7688886422797783, 7.856357024992402]}}, {"type": "Feature", "properties": {"mineral": "Limestone", "occurrence_id": 10}, "geometry": {"type": "Point", "coordinates": [2.683228347723785, 8.036178884262393]}}, {"type": "Feature", "properties": {"mineral": "Gold", "occurrence_id": 11}, "geometry": {"type": "Point", "coordinates": [3.2597224246655707, 7.232405634391908]}}, {"type": "Feature", "properties": {"mineral": "Tantalite", "occurrence_id": 12}, "geometry": {"type": "Point", "coordinates": [2.8068059354451034, 8.251582516008737]}}, {"type": "Feature", "properties": {"mineral": "Cassiterite", "occurrence_id": 13}, "geometry": {"type": "Point", "coordinates": [2.9411859370737723, 9.027776272266633]}}, {"type": "Feature", "properties": {"mineral": "Lithium (Spodumene)", "occurrence_id": 14}, "geometry": {"type": "Point", "coordinates": [3.76212227940079, 7.6978005504301255]}}, {"type": "Feature", "properties": {"mineral": "Limestone", "occurrence_id": 15}, "geometry": {"type": "Point", "coordinates": [3.781830982962833, 6.952448903368305]}}, {"type": "Feature", "properties": {"mineral": "Gold", "occurrence_id": 16}, "geometry": {"type": "Point", "coordinates": [4.51711842648289, 8.00929790496867]}}, {"type": "Feature", "properties": {"mineral": "Tantalite", "occurrence_id": 17}, "geometry": {"type": "Point", "coordinates": [4.165470454500572, 7.090278999821609]}}, {"type": "Feature", "properties": {"mineral": "Cassiterite", "occurrence_id": 18}, "geometry": {"type": "Point", "coordinates": [3.5733166616763206, 8.028626087015398]}}, {"type": "Feature", "properties": {"mineral": "Lithium (Spodumene)", "occurrence_id": 19}, "geometry": {"type": "Point", "coordinates": [4.475652909949965, 8.214974520464974]}}, {"type": "Feature", "properties": {"mineral": "Limestone", "occurrence_id": 20}, "geometry": {"type": "Point", "coordinates": [3.5469788021139075, 7.514044025111355]}}, {"type": "Feature", "properties": {"mineral": "Gold", "occurrence_id": 21}, "geometry": {"type": "Point", "coordinates": [3.2631379946851045, 8.097546525684537]}}, {"type": "Feature", "properties": {"mineral": "Tantalite", "occurrence_id": 22}, "geometry": {"type": "Point", "coordinates": [3.4778229206100932, 6.949707783724761]}}, {"type": "Feature", "properties": {"mineral": "Cassiterite", "occurrence_id": 23}, "geometry": {"type": "Point", "coordinates": [4.252583848388715, 8.961169775231463]}}, {"type": "Feature", "properties": {"mineral": "Lithium (Spodumene)", "occurrence_id": 24}, "geometry": {"type": "Point", "coordinates": [2.8804981779972216, 8.174283130139813]}}, {"type": "Feature", "properties": {"mineral": "Limestone", "occurrence_id": 25}, "geometry": {"type": "Point", "coordinates": [2.817151482270887, 8.446152213991567]}}, {"type": "Feature", "properties": {"mineral": "Gold", "occurrence_id": 26}, "geometry": {"type": "Point", "coordinates": [3.1624675676780165, 8.416672059791374]}}, {"type": "Feature", "properties": {"mineral": "Tantalite", "occurrence_id": 27}, "geometry": {"type": "Point", "coordinates": [4.053989228573765, 8.66788923141061]}}, {"type": "Feature", "properties": {"mineral": "Cassiterite", "occurrence_id": 28}, "geometry": {"type": "Point", "coordinates": [2.815481891911793, 9.006827243816497]}}, {"type": "Feature", "properties": {"mineral": "Lithium (Spodumene)", "occurrence_id": 29}, "geometry": {"type": "Point", "coordinates": [3.0604279817897617, 6.986048879205214]}}, {"type": "Feature", "properties": {"mineral": "Limestone", "occurrence_id": 30}, "geometry": {"type": "Point", "coordinates": [3.7097049387829664, 7.753121252883609]}}, {"type": "Feature", "properties": {"mineral": "Gold", "occurrence_id": 31}, "geometry": {"type": "Point", "coordinates": [4.259579486264826, 8.758978385747893]}}, {"type": "Feature", "properties": {"mineral": "Tantalite", "occurrence_id": 32}, "geometry": {"type": "Point", "coordinates": [3.2342777856454306, 9.091668608660413]}}, {"type": "Feature", "properties": {"mineral": "Cassiterite", "occurrence_id": 33}, "geometry": {"type": "Point", "coordinates": [3.181835676280237, 8.084631397232943]}}, {"type": "Feature", "properties": {"mineral": "Lithium (Spodumene)", "occurrence_id": 34}, "geometry": {"type": "Point", "coordinates": [3.1119301811352056, 9.052900211112615]}}, {"type": "Feature", "properties": {"mineral": "Limestone", "occurrence_id": 35}, "geometry": {"type": "Point", "coordinates": [2.929215635164036, 7.003294424602357]}}, {"type": "Feature", "properties": {"mineral": "Gold", "occurrence_id": 36}, "geometry": {"type": "Point", "coordinates": [3.4701941200060755, 9.182463797328424]}}, {"type": "Feature", "properties": {"mineral": "Tantalite", "occurrence_id": 37}, "geometry": {"type": "Point", "coordinates": [4.383354532509827, 8.621798444750983]}}, {"type": "Feature", "properties": {"mineral": "Cassiterite", "occurrence_id": 38}, "geometry": {"type": "Point", "coordinates": [4.381584981757049, 8.954927271305085]}}, {"type": "Feature", "properties": {"mineral": "Lithium (Spodumene)", "occurrence_id": 39}, "geometry": {"type": "Point", "coordinates": [3.637716720772898, 7.626636819210824]}}, {"type": "Feature", "properties": {"mineral": "Limestone", "occurrence_id": 40}, "geometry": {"type": "Point", "coordinates": [4.144024864221976, 8.42182090528585]}}, {"type": "Feature", "properties": {"mineral": "Gold", "occurrence_id": 41}, "geometry": {"type": "Point", "coordinates": [3.34731545774742, 7.117273336541485]}}, {"type": "Feature", "properties": {"mineral": "Tantalite", "occurrence_id": 42}, "geometry": {"type": "Point", "coordinates": [4.093579222698052, 7.503659186622588]}}, {"type": "Feature", "properties": {"mineral": "Cassiterite", "occurrence_id": 43}, "geometry": {"type": "Point", "coordinates": [4.473626301067558, 7.454232322513075]}}, {"type": "Feature", "properties": {"mineral": "Lithium (Spodumene)", "occurrence_id": 44}, "geometry": {"type": "Point", "coordinates": [2.845515864822972, 8.811559145887284]}}, {"type": "Feature", "properties": {"mineral": "Limestone", "occurrence_id": 45}, "geometry": {"type": "Point", "coordinates": [2.906568633248988, 7.3123171087628]}}, {"type": "Feature", "properties": {"mineral": "Gold", "occurrence_id": 46}, "geometry": {"type": "Point", "coordinates": [3.798765583041687, 8.911492693926167]}}, {"type": "Feature", "properties": {"mineral": "Tantalite", "occurrence_id": 47}, "geometry": {"type": "Point", "coordinates": [2.9928693314291466, 7.613744447670218]}}, {"type": "Feature", "properties": {"mineral": "Cassiterite", "occurrence_id": 48}, "geometry": {"type": "Point", "coordinates": [4.154809676482355, 9.135200779940224]}}, {"type": "Feature", "properties": {"mineral": "Lithium (Spodumene)", "occurrence_id": 49}, "geometry": {"type": "Point", "coordinates": [3.6014823724046847, 7.230964255867877]}}, {"type": "Feature", "properties": {"mineral": "Limestone", "occurrence_id": 50}, "geometry": {"type": "Point", "coordinates": [2.627872575416403, 7.428208868997367]}}, {"type": "Feature", "properties": {"mineral": "Gold", "occurrence_id": 51}, "geometry": {"type": "Point", "coordinates": [2.863644435573042, 8.458614949309572]}}, {"type": "Feature", "properties": {"mineral": "Tantalite", "occurrence_id": 52}, "geometry": {"type": "Point", "coordinates": [2.8436650092570623, 8.064558842727456]}}, {"type": "Feature", "properties": {"mineral": "Cassiterite", "occurrence_id": 53}, "geometry": {"type": "Point", "coordinates": [3.988524871285773, 8.236568201208076]}}, {"type": "Feature", "properties": {"mineral": "Lithium (Spodumene)", "occurrence_id": 54}, "geometry": {"type": "Point", "coordinates": [2.999551303320115, 8.749486410219204]}}, {"type": "Feature", "properties": {"mineral": "Limestone", "occurrence_id": 55}, "geometry": {"type": "Point", "coordinates": [4.030814259231603, 8.599663209005746]}}, {"type": "Feature", "properties": {"mineral": "Gold", "occurrence_id": 56}, "geometry": {"type": "Point", "coordinates": [2.8621155031146266, 7.184633748395793]}}, {"type": "Feature", "properties": {"mineral": "Tantalite", "occurrence_id": 57}, "geometry": {"type": "Point", "coordinates": [4.455125102013015, 7.814429845797363]}}, {"type": "Feature", "properties": {"mineral": "Cassiterite", "occurrence_id": 58}, "geometry": {"type": "Point", "coordinates": [3.2018973835618794, 8.023743304308526]}}, {"type": "Feature", "properties": {"mineral": "Lithium (Spodumene)", "occurrence_id": 59}, "geometry": {"type": "Point", "coordinates": [3.925728425527165, 9.09793349120803]}}, {"type": "Feature", "properties": {"mineral": "Limestone", "occurrence_id": 60}, "geometry": {"type": "Point", "coordinates": [3.17289245376411, 9.027059387417662]}}]}