{"type": "FeatureCollection", "features": [{"type": "Feature", "properties": {"name": "River 1"}, "geometry": {"type": "LineString", "coordinates": [[2.6, 8.6488993884915], [2.6833333333333336, 8.671412924365693], [2.7666666666666666, 8.69962986585743], [2.85, 8.641098810197814], [2.9333333333333336, 8.602033424991944], [3.0166666666666666, 8.605868637086964], [3.1, 8.596381359316656], [3.1833333333333336, 8.595877324591527], [3.2666666666666666, 8.57028600676432], [3.3499999999999996, 8.596667946010205], [3.433333333333333, 8.620001704073074], [3.5166666666666666, 8.62198262499991], [3.5999999999999996, 8.655799861208951], [3.683333333333333, 8.669825141476514], [3.7666666666666666, 8.644046367590017], [3.8499999999999996, 8.65510889111249], [3.933333333333333, 8.62634241308762], [4.016666666666667, 8.652695922126838], [4.1, 8.65119814479725], [4.183333333333334, 8.645652273890892], [4.266666666666667, 8.625224387558774], [4.35, 8.661900627718994], [4.433333333333334, 8.65726474325693], [4.516666666666667, 8.644414908592037], [4.6, 8.63385090207739]]}}, {"type": "Feature", "properties": {"name": "River 2"}, "geometry": {"type": "LineString", "coordinates": [[2.6, 7.984421630503101], [2.6833333333333336, 7.99680360885098], [2.7666666666666666, 8.009728238941216], [2.85, 8.07397766696733], [2.9333333333333336, 8.061785216475792], [3.0166666666666666, 8.046417934603646], [3.1, 8.02200475275621], [3.1833333333333336, 8.040484135433475], [3.2666666666666666, 8.074353304215101], [3.3499999999999996, 8.070934880485455], [3.433333333333333, 8.045730186176579], [3.5166666666666666, 8.020995749705842], [3.5999999999999996, 8.040513533340583], [3.683333333333333, 8.062811158476686], [3.7666666666666666, 8.079105786525842], [3.8499999999999996, 8.059140495307181], [3.933333333333333, 8.066105334999182], [4.016666666666667, 8.069605909273404], [4.1, 8.076166567175274], [4.183333333333334, 8.10230943051372], [4.266666666666667, 8.109017296976962], [4.35, 8.12938470386912], [4.433333333333334, 8.131412075953786], [4.516666666666667, 8.140085657914486], [4.6, 8.159024304689643]]}}, {"type": "Feature", "properties": {"name": "River 3"}, "geometry": {"type": "LineString", "coordinates": [[2.6, 8.512290234349852], [2.6833333333333336, 8.498179054721067], [2.7666666666666666, 8.479012719273767], [2.85, 8.470758451736966], [2.9333333333333336, 8.515606691073998], [3.0166666666666666, 8.4896317576032], [3.1, 8.518680108240945], [3.1833333333333336, 8.46819401509247], [3.2666666666666666, 8.458147464192896], [3.3499999999999996, 8.463030056146046], [3.433333333333333, 8.480616726086824], [3.5166666666666666, 8.50195352348061], [3.5999999999999996, 8.525753940536609], [3.683333333333333, 8.515292188369155], [3.7666666666666666, 8.501421634589219], [3.8499999999999996, 8.527160911026934], [3.933333333333333, 8.521421781280486], [4.016666666666667, 8.483151191580347], [4.1, 8.449152575160243], [4.183333333333334, 8.421569006580194], [4.266666666666667, 8.436483828901807], [4.35, 8.440756600983924], [4.433333333333334, 8.461471161605957], [4.516666666666667, 8.44865358221586], [4.6, 8.453409772948161]]}}, {"type": "Feature", "properties": {"name": "River 4"}, "geometry": {"type": "LineString", "coordinates": [[2.6, 8.418640746561383], [2.6833333333333336, 8.432344003688106], [2.7666666666666666, 8.412486225456107], [2.85, 8.401594610059155], [2.9333333333333336, 8.390142473239205], [3.0166666666666666, 8.354267283871534], [3.1, 8.368876458295102], [3.1833333333333336, 8.35479438808902], [3.2666666666666666, 8.355169211650852], [3.3499999999999996, 8.369591611418029], [3.433333333333333, 8.382987546698928], [3.5166666666666666, 8.402949099968112], [3.5999999999999996, 8.399994535432828], [3.683333333333333, 8.387295586071504], [3.7666666666666666, 8.384904039744312], [3.8499999999999996, 8.334284006725571], [3.933333333333333, 8.29087063255288], [4.016666666666667, 8.251189644182247], [4.1, 8.221272239354203], [4.183333333333334, 8.233265466155906], [4.266666666666667, 8.206101094495104], [4.35, 8.194756217873921], [4.433333333333334, 8.233733066807503], [4.516666666666667, 8.22304514767566], [4.6, 8.245170614729671]]}}]}